UNKNOWN                 
1 82110U          21338.95160521  .00126409  00000+0  12977-1 0  9996
2 82110  51.5946 261.9112 1422020  32.9001 335.2775 12.40983101262339
UNKNOWN                 
1 82112U          21336.71291203  .00002091  00000+0  58097-3 0  9997
2 82112  98.6512  72.8728 0101003  93.5967 267.6781 14.44577301368656
UNKNOWN                 
1 82139U          21338.80199582  .00000821  00000+0  50583-3 0  9996
2 82139  99.1360  12.4116 0093879 200.1351 159.6103 14.06235347273110
UNKNOWN                 
1 82162U          21341.51609470  .00001118  00000+0  20430-2 0  9993
2 82162 100.3895 185.4460 0047027 164.0883 196.1735 13.42600036306900
UNKNOWN                 
1 82168U          21341.20490393  .00006105  00000+0  91052-3 0  9997
2 82168  74.0098 155.3063 0007079 213.6554 146.4170 14.75031196272749
UNKNOWN                 
1 82180U          21340.90082033  .00001700  00000+0  37612-3 0  9993
2 82180  65.6618 297.1294 0486488 227.3201 128.5927 14.05800119392997
UNKNOWN                 
1 82187U          21339.43559247  .00004450  00000+0  82720-3 0  9997
2 82187  70.9422 237.9467 0069132 277.6846  81.6454 14.64190852427620
UNKNOWN                 
1 82189U          21340.35860349  .00000096  00000+0  43771-4 0  9996
2 82189  74.0346 214.8772 0015980  39.5329 320.6985 14.33672979422034
UNKNOWN                 
1 82199U          21341.53924998  .00000177  00000+0  14605-3 0  9992
2 82199  82.9683 253.8324 0035862 236.3491 299.8847 13.83604499406808
UNKNOWN                 
1 82205U          21341.56975560  .00000857  00000+0  19681-3 0  9998
2 82205  62.9980  44.4162 0639542 150.8414 212.9983 13.79958639404749
UNKNOWN                 
1 82223U          21341.41639836  .00001147  00000+0  74831-3 0  9996
2 82223  99.3902 154.3108 0075061  75.2645 285.6824 14.03119690242626
UNKNOWN                 
1 82227U          21326.39813062 -.00000024  00000+0  14523-3 0  9991
2 82227 101.8492 297.5390 0004324  12.6921 143.1945 12.41985487457256
UNKNOWN                 
1 82250U          21341.22992557  .00000966  00000+0  65385-3 0  9999
2 82250  98.9558 245.9019 0087584 334.7451 180.3686 14.00856678410543
UNKNOWN                 
1 82268U          21341.07634437  .00001694  00000+0  89405-3 0  9999
2 82268  99.1350  75.5074 0060288 160.3462 324.5545 14.14359449527836
UNKNOWN                 
1 82272U          21338.72607086  .00000535  00000+0  18258-2 0  9992
2 82272  67.5265 337.5558 0759736 324.9827  30.3375 12.32046497 90875
UNKNOWN                 
1 82284U          21340.69097972  .00002418  00000+0  95618-3 0  9999
2 82284  99.5599 129.8081 0103759 334.0242  25.5749 14.27132340461431
UNKNOWN                 
1 82285U          21338.53168235  .00002194  00000+0  22454-2 0  9999
2 82285 102.0015  86.3135 0348696 312.6203  44.6002 13.54384721395815
UNKNOWN                 
1 82295U          21336.88519401  .00000270  00000+0  13671-3 0  9996
2 82295  66.6238  36.6895 0132591 181.6519 178.4158 14.25805338369706
UNKNOWN                 
1 82298U          21337.47530844  .00001891  00000+0  99477-3 0  9997
2 82298  99.0634  62.9932 0066291 182.6106 177.4730 14.14180860357187
UNKNOWN                 
1 82303U          21320.44397315  .00014834  00000+0  33045-1 0  9995
2 82303  81.9772 123.6518 0054600 232.0657 157.4593 13.26711820314001
UNKNOWN                 
1 82311U          21341.21570317  .00000401  00000+0  65034-3 0  9997
2 82311  99.5123  76.7867 0110129  34.8064 326.0213 13.51978271351983
UNKNOWN                 
1 82314U          21341.09933714  .00006250  00000+0  27185-3 0  9993
2 82314  99.2116  83.6097 0196665 335.6723  23.5308 15.07012796320636
UNKNOWN                 
1 82320U          21340.31452830  .00000856  00000+0  32066-3 0  9999
2 82320  99.8504   7.2099 0161264 107.2050 254.6850 14.27900643418407
UNKNOWN                 
1 82322U          21341.13061324  .00002009  00000+0  49329-3 0  9998
2 82322  98.5792  47.8559 0077896 254.2891 104.9700 14.51723643351382
UNKNOWN                 
1 82363U          21341.55929784 -.00000068  00000+0 -96201-5 0  9990
2 82363  66.9375  88.1883 0460308  19.6791 342.1378 13.13810607 97543
UNKNOWN                 
1 82369U 99025    21339.34047761 -.00000154  00000+0 -77066-4 0  9994
2 82369  99.0327   9.6121 0084960  65.1266 295.8699 13.97038624352070
UNKNOWN                 
1 82381U          21341.50448629  .00001538  00000+0  51018-3 0  9995
2 82381  98.4857 174.6365 0017951 310.8155  49.1476 14.39143028297917
UNKNOWN                 
1 82383U          21341.10031459  .00004397  00000+0  61629-3 0  9997
2 82383  98.2848  28.4274 0004427 299.9346  60.1424 14.78033526329551
UNKNOWN                 
1 82402U          21341.48025558  .00000592  00000+0  65283-4 0  9997
2 82402  86.6709  57.3410 0012188  36.2960 323.9089 14.85508598235827
UNKNOWN                 
1 82410U          21339.41336924  .00000116  00000+0  19282-3 0  9997
2 82410  66.6584 259.4228 0068963 280.2265  79.1033 13.76092767384636
UNKNOWN                 
1 82428U          21341.56900475  .00010793  00000+0  99456-2 0  9995
2 82428  63.1686 280.6572 0092671  30.2234 330.4108 13.81053270216845
UNKNOWN                 
1 82432U 93036    21341.41455595  .00000362  00000+0  97434-4 0  9990
2 82432  74.0098 235.6053 0062752  35.5159 325.0153 14.50572265269826
UNKNOWN                 
1 82448U          21341.46205979  .00000624  00000+0  68995-4 0  9991
2 82448  85.8805 248.4247 0013365  79.6180 280.6549 14.85460612218385
UNKNOWN                 
1 82451U          21337.96956304  .00010033  00000+0  10980-2 0  9994
2 82451  66.5343 172.2569 0278852 134.2235 228.2151 14.63763096916465
UNKNOWN                 
1 82453U          21341.12095189 -.00000015  00000+0  21441-3 0  9999
2 82453 101.9693 290.2625 0094548  43.6888 317.1611 12.39528920364336
UNKNOWN                 
1 82458U          21339.79526491  .00000473  00000+0  31008-3 0  9996
2 82458  66.5129 357.3997 0072393 271.9522  87.3274 14.09552967402378
UNKNOWN                 
1 82464U          21338.06152080  .00003230  00000+0  94667-3 0  9995
2 82464  71.0006  81.6432 0087806 253.6439 281.9124 14.42419973421395
UNKNOWN                 
1 82475U          21325.89194958  .00000962  00000+0  59640-3 0  9995
2 82475  99.1390   1.4304 0106694 268.3235  90.5709 14.04902394337667
UNKNOWN                 
1 82481U          21341.60679204  .00025620  00000+0  12463-2 0  9990
2 82481  99.0163 268.8130 0030436  59.7667 300.6569 15.17986373236737
UNKNOWN                 
1 82484U          21341.13745586  .00000053  00000+0  13895-3 0  9992
2 82484  99.5361  45.1987 0044108 299.5200  60.1543 13.55108357391953
UNKNOWN                 
1 82494U 93036    21340.19476807  .00001275  00000+0  33841-3 0  9996
2 82494  74.0210 312.8923 0008673  83.5114 276.7033 14.49687721269258
UNKNOWN                 
1 82500U          21339.24313398  .00000878  00000+0  53110-3 0  9991
2 82500  70.9717 187.8123 0141895 162.5166 198.0910 14.04308286411968
UNKNOWN                 
1 82517U          21341.42774765  .00002327  00000+0  68507-3 0  9998
2 82517  86.3920 348.1305 0023564  43.0481 317.2558 14.43155544211323
UNKNOWN                 
1 82524U          21341.59216645  .00000825  00000+0  37927-3 0  9995
2 82524  73.2932  56.3033 0178650 244.6050 183.1142 14.15018330368550
UNKNOWN                 
1 82529U          21341.28404774 -.00000395  00000+0 -55492-3 0  9999
2 82529  99.7823  92.5165 0245501 207.1667 184.6494 13.38539219393386
UNKNOWN                 
1 82545U          21339.83818305 -.00000027  00000+0  41787-3 0  9997
2 82545  64.8878  32.2647 0182123 216.1255 142.7253 11.30780523272937
UNKNOWN                 
1 82560U          21339.74423836  .00000443  00000+0  43229-3 0  9999
2 82560 100.0401 158.3658 0010129 200.7605 173.5780 13.85527934408277
UNKNOWN                 
1 82561U          21341.06526654  .00000506  00000+0  20108-3 0  9991
2 82561  63.1184  80.8305 0488242 352.8733 182.9228 13.88690228407156
UNKNOWN                 
1 82576U          21335.55270656  .00000931  00000+0  63097-3 0  9998
2 82576  99.2631   3.2931 0114718 100.9532 260.4562 13.99616969 27711
UNKNOWN                 
1 82597U          21341.41134578  .00000369  00000+0  17029-3 0  9994
2 82597  66.7743  21.2508 0108264 313.0715  46.1357 14.28434346419127
UNKNOWN                 
1 82616U          21341.49630245  .00004640  00000+0  57810-3 0  9994
2 82616  97.3043  65.0987 0097103 105.2979 255.8992 14.79552601348509
UNKNOWN                 
1 82617U          21341.02949523  .00000145  00000+0  47583-4 0  9999
2 82617  74.0282 108.4868 0040006  52.5696 307.9092 14.46310887424593
UNKNOWN                 
1 82627U          21339.93226183  .00000292  00000+0  76416-3 0  9996
2 82627  82.4786 212.6902 0004603 169.1453 206.0839 13.13747347385932
UNKNOWN                 
1 82637U          21335.37769021  .00005736  00000+0  14939-2 0  9993
2 82637  99.5234 190.0109 0032454 232.4727 127.3513 14.49705058290821
UNKNOWN                 
1 82642U          21341.47783055  .00000525  00000+0  35876-3 0  9995
2 82642  99.0121 249.4711 0142858 349.0366  10.7695 13.99384849410598
UNKNOWN                 
1 82683U 99057    21341.40984792  .00000312  00000+0  14622-3 0  9994
2 82683  98.1027 148.2384 0227407 344.2374  15.1801 14.13699966254691
UNKNOWN                 
1 82693U          21341.25241160  .00000957  00000+0  13370-2 0  9996
2 82693 100.5423 162.8969 0042689  38.6776 321.7406 13.60286503353819
UNKNOWN                 
1 82698U          21341.58261015  .00000104  00000+0  11725-3 0  9995
2 82698  61.6063  88.0451 0742005 117.2771 250.5775 13.21564550344124
UNKNOWN                 
1 82708U          21341.41531547  .00000526  00000+0  22839-2 0  9994
2 82708 102.1507  29.1442 0056553 359.0823   1.0155 12.87221926334641
UNKNOWN                 
1 82728U          21340.76504503  .00025258  00000+0  62041-2 0  9993
2 82728 100.1131 176.4171 0172746 325.0472  33.9468 14.43636070886956
